H1 CPF 01  gfz 2021 03 17 13  5762 terrasarx 
H2 0702601  6201 31698    2021 03 17 12 59 42 2021 03 22 00 00 42   120 1 1  0 0 0
H9
10 0 59292  56142.000000  0   -4864518.486  -2954297.465  -3889576.369
10 0 59292  56262.000000  0   -4485450.173  -2504509.086  -4597298.500
10 0 59292  56382.000000  0   -4020204.427  -2018561.635  -5224516.822
10 0 59292  56502.000000  0   -3476398.966  -1506383.804  -5760344.496
10 0 59292  56622.000000  0   -2863168.782   -978192.689  -6195506.977
10 0 59292  56742.000000  0   -2191006.727   -444291.020  -6522491.496
10 0 59292  56862.000000  0   -1471580.029     85131.040  -6735665.131
10 0 59292  56982.000000  0    -717527.990    600185.625  -6831360.247
10 0 59292  57102.000000  0      57755.805   1091466.806  -6807930.778
10 0 59292  57222.000000  0     840355.108   1550217.613  -6665777.115
10 0 59292  57342.000000  0    1616074.525   1968482.163  -6407342.582
10 0 59292  57462.000000  0    2370692.100   2339242.140  -6037075.943
10 0 59292  57582.000000  0    3090216.142   2656534.117  -5561362.708
10 0 59292  57702.000000  0    3761141.433   2915545.938  -4988424.704
10 0 59292  57822.000000  0    4370703.534   3112692.070  -4328190.623
10 0 59292  57942.000000  0    4907126.231   3245665.513  -3592134.352
10 0 59292  58062.000000  0    5359855.128   3313464.055  -2793083.311
10 0 59292  58182.000000  0    5719772.826   3316391.770  -1945001.058
10 0 59292  58302.000000  0    5979391.668   3256033.788  -1062744.395
10 0 59292  58422.000000  0    6133016.439   3135203.812   -161800.848
10 0 59292  58542.000000  0    6176874.041   2957866.091    741988.583
10 0 59292  58662.000000  0    6109205.447   2729032.481   1632715.387
10 0 59292  58782.000000  0    5930317.168   2454639.929   2494691.804
10 0 59292  58902.000000  0    5642591.770   2141408.774   3312736.387
10 0 59292  59022.000000  0    5250454.907   1796685.736   4072449.087
10 0 59292  59142.000000  0    4760301.006   1428276.531   4760469.618
10 0 59292  59262.000000  0    4180381.085   1044272.290   5364712.413
10 0 59292  59382.000000  0    3520656.159    652873.851   5874579.201
10 0 59292  59502.000000  0    2792615.480    262217.973   6281140.760
10 0 59292  59622.000000  0    2009070.009   -119789.255   6577285.722
10 0 59292  59742.000000  0    1183923.643   -485630.239   6757839.615
10 0 59292  59862.000000  0     331923.458   -828322.735   6819651.214
10 0 59292  59982.000000  0    -531605.264  -1141552.132   6761643.056
10 0 59292  60102.000000  0   -1391034.111  -1419787.571   6584828.339
10 0 59292  60222.000000  0   -2230713.079  -1658379.603   6292293.052
10 0 59292  60342.000000  0   -3035253.223  -1853637.114   5889145.677
10 0 59292  60462.000000  0   -3789810.154  -2002884.862   5382436.478
10 0 59292  60582.000000  0   -4480363.356  -2104500.419   4781040.086
10 0 59292  60702.000000  0   -5093982.848  -2157928.378   4095504.705
10 0 59292  60822.000000  0   -5619078.411  -2163670.902   3337870.110
10 0 59292  60942.000000  0   -6045626.320  -2123255.353   2521458.466
10 0 59292  61062.000000  0   -6365370.089  -2039180.926   1660640.476
10 0 59292  61182.000000  0   -6571989.932  -1914844.186    770577.338
10 0 59292  61302.000000  0   -6661232.133  -1754444.320   -133053.972
10 0 59292  61422.000000  0   -6630998.557  -1562871.030  -1034345.395
10 0 59292  61542.000000  0   -6481391.668  -1345578.248  -1917447.333
10 0 59292  61662.000000  0   -6214714.886  -1108447.350  -2766855.075
10 0 59292  61782.000000  0   -5835429.225   -857643.628  -3567686.481
10 0 59292  61902.000000  0   -5350067.773   -599468.679  -4305945.325
10 0 59292  62022.000000  0   -4767110.766   -340212.592  -4968764.755
10 0 59292  62142.000000  0   -4096824.858    -86010.391  -5544626.546
10 0 59292  62262.000000  0   -3351070.740    157294.252  -6023552.976
10 0 59292  62382.000000  0   -2543084.835    384275.436  -6397267.820
10 0 59292  62502.000000  0   -1687240.938    590038.551  -6659327.394
10 0 59292  62622.000000  0    -798794.165    770319.232  -6805221.212
10 0 59292  62742.000000  0     106387.269    921567.524  -6832440.143
10 0 59292  62862.000000  0    1012097.722   1041014.512  -6740514.370
10 0 59292  62982.000000  0    1902077.275   1126721.297  -6531023.462
10 0 59292  63102.000000  0    2760298.178   1177610.480  -6207572.352
10 0 59292  63222.000000  0    3571249.035   1193478.619  -5775735.208
10 0 59292  63342.000000  0    4320211.714   1174989.415  -5242968.278
10 0 59292  63462.000000  0    4993529.592   1123648.102  -4618493.350
10 0 59292  63582.000000  0    5578862.244   1041757.557  -3913149.016
10 0 59292  63702.000000  0    6065419.705    932356.121  -3139211.850
10 0 59292  63822.000000  0    6444172.096    799138.265  -2310190.235
10 0 59292  63942.000000  0    6708030.437    646360.105  -1440592.308
10 0 59292  64062.000000  0    6851991.772    478730.841   -545670.670
10 0 59292  64182.000000  0    6873243.443    301293.170    358849.425
10 0 59292  64302.000000  0    6771225.461    119296.227   1257052.505
10 0 59292  64422.000000  0    6547648.359    -61937.542   2133121.526
10 0 59292  64542.000000  0    6206464.271   -237146.506   2971626.182
10 0 59292  64662.000000  0    5753792.005   -401262.605   3757802.703
10 0 59292  64782.000000  0    5197799.253   -549537.803   4477818.547
10 0 59292  64902.000000  0    4548547.126   -677662.461   5119019.271
10 0 59292  65022.000000  0    3817796.608   -781872.703   5670151.158
10 0 59292  65142.000000  0    3018785.627   -859042.724   6121554.786
10 0 59292  65262.000000  0    2165981.630   -906762.048   6465329.315
10 0 59292  65382.000000  0    1274814.851   -923395.652   6695465.228
10 0 59292  65502.000000  0     361394.931   -908126.056   6807944.429
10 0 59292  65622.000000  0    -557781.912   -860976.001   6800804.769
10 0 59292  65742.000000  0   -1466129.900   -782812.300   6674171.044
10 0 59292  65862.000000  0   -2347271.433   -675329.970   6430252.589
10 0 59292  65982.000000  0   -3185330.817   -541017.111   6073307.518
10 0 59292  66102.000000  0   -3965221.352   -383101.038   5609574.443
10 0 59292  66222.000000  0   -4672921.366   -205476.946   5047170.124
10 0 59292  66342.000000  0   -5295733.108    -12620.001   4395952.924
10 0 59292  66462.000000  0   -5822518.936    190517.367   3667354.180
10 0 59292  66582.000000  0   -6243909.388    398621.238   2874180.109
10 0 59292  66702.000000  0   -6552480.160    606142.697   2030387.535
10 0 59292  66822.000000  0   -6742892.441    807431.908   1150835.268
10 0 59292  66942.000000  0   -6811992.991    996875.997    251016.438
10 0 59292  67062.000000  0   -6758870.131   1169037.971   -653223.120
10 0 59292  67182.000000  0   -6584863.284   1318792.573  -1545973.296
10 0 59292  67302.000000  0   -6293527.643   1441455.237  -2411547.089
10 0 59292  67422.000000  0   -5890556.447   1532902.888  -3234763.503
10 0 59292  67542.000000  0   -5383658.612   1589681.076  -4001219.466
10 0 59292  67662.000000  0   -4782398.285   1609095.297  -4697541.714
10 0 59292  67782.000000  0   -4098001.946   1589285.493  -5311616.007
10 0 59292  67902.000000  0   -3343138.113   1529281.801  -5832789.683
10 0 59292  68022.000000  0   -2531675.903   1429040.768  -6252046.369
10 0 59292  68142.000000  0   -1678426.104   1289461.479  -6562151.309
10 0 59292  68262.000000  0    -798869.492   1112382.291  -6757764.164
10 0 59292  68382.000000  0      91120.242    900557.283  -6835520.159
10 0 59292  68502.000000  0     975555.373    657614.425  -6794081.501
10 0 59292  68622.000000  0    1838614.752    387994.670  -6634160.429
10 0 59292  68742.000000  0    2664921.207     96872.706  -6358507.725
10 0 59292  68862.000000  0    3439810.463   -209938.559  -5971870.784
10 0 59292  68982.000000  0    4149588.677   -526099.678  -5480919.199
10 0 59292  69102.000000  0    4781774.001   -844870.063  -4894141.014
10 0 59292  69222.000000  0    5325321.714  -1159246.219  -4221708.227
10 0 59292  69342.000000  0    5770825.428  -1462109.593  -3475310.436
10 0 59292  69462.000000  0    6110690.435  -1746381.421  -2667959.738
10 0 59292  69582.000000  0    6339275.138  -2005181.545  -1813768.811
10 0 59292  69702.000000  0    6452996.167  -2231987.212   -927705.226
10 0 59292  69822.000000  0    6450394.194  -2420787.514    -25326.962
10 0 59292  69942.000000  0    6332158.213  -2566230.201    877496.358
10 0 59292  70062.000000  0    6101106.777  -2663756.079   1764870.758
10 0 59292  70182.000000  0    5762125.349  -2709718.080   2621167.264
10 0 59292  70302.000000  0    5322062.069  -2701481.702   3431305.698
10 0 59292  70422.000000  0    4789583.607  -2637503.177   4181027.220
10 0 59292  70542.000000  0    4174997.806  -2517384.387   4857147.849
10 0 59292  70662.000000  0    3490047.354  -2341904.762   5447792.599
10 0 59292  70782.000000  0    2747675.752  -2113027.636   5942602.936
10 0 59292  70902.000000  0    1961775.646  -1833881.188   6332913.444
10 0 59292  71022.000000  0    1146923.872  -1508715.945   6611897.877
10 0 59292  71142.000000  0     318107.713  -1142839.145   6774682.659
10 0 59292  71262.000000  0    -509551.993   -742526.741   6818426.275
10 0 59292  71382.000000  0   -1321075.830   -314915.237   6742364.871
10 0 59292  71502.000000  0   -2101895.553    132125.209   6547824.691
10 0 59292  71622.000000  0   -2838114.552    590135.037   6238200.717
10 0 59292  71742.000000  0   -3516755.615   1050224.281   5818901.737
10 0 59292  71862.000000  0   -4125992.577   1503243.807   5297262.208
10 0 59292  71982.000000  0   -4655362.127   1939966.223   4682420.366
10 0 59292  72102.000000  0   -5095950.764   2351273.712   3985163.065
10 0 59292  72222.000000  0   -5440552.345   2728348.377   3217739.654
10 0 59292  72342.000000  0   -5683793.159   3062860.581   2393648.215
10 0 59292  72462.000000  0   -5822222.723   3347151.758   1527397.356
10 0 59292  72582.000000  0   -5854367.013   3574407.593    634245.622
99
